0 S80/T
1 22078U 92052C   13281.45541005 -.00000025  00000-0  14584-3 0  3814
2 22078 066.0848 261.3949 0017131 274.4138 252.2638 12.86757552994287
0 S80/T
1 22078U 92052C   13283.53737455 -.00000067  00000-0 -21028-4 0  3821
2 22078 066.0849 257.0319 0017130 273.8395 176.2119 12.86758319994559
0 S80/T
1 22078U 92052C   13286.17929471 -.00000064  00000-0 -76019-5 0  3834
2 22078 066.0853 251.4952 0017121 273.1747 173.8961 12.86758344994892
0 S80/T
1 22078U 92052C   13288.51245499 -.00000057  00000-0  19718-4 0  3849
2 22078 066.0857 246.6057 0017103 272.6506 181.3046 12.86758250995193
0 S80/T
1 22078U 92052C   13291.15448774 -.00000025  00000-0  14819-3 0  3856
2 22078 066.0859 241.0694 0017093 271.9864 179.5098 12.86758078995530
0 S80/T
1 22078U 92052C   13293.17819028 -.00000010  00000-0  20568-3 0  3867
2 22078 066.0859 236.8290 0017099 271.4831 193.5306 12.86758124995797
0 S80/T
1 22078U 92052C   13295.34977036 -.00000055  00000-0  25348-4 0  3874
2 22078 066.0858 232.2787 0017083 270.9616 172.5159 12.86758557996070
